NORAD_CAT_ID,OBJECT_NAME,OBJECT_TYPE,EPOCH,MEAN_MOTION,ECCENTRICITY,INCLINATION,RA_OF_ASC_NODE,ARG_OF_PERICENTER,MEAN_ANOMALY,BSTAR,MEAN_MOTION_DOT,MEAN_MOTION_DDOT,TLE_LINE0,TLE_LINE1,TLE_LINE2,SEMIMAJOR_AXIS,PERIOD,APOGEE,PERIGEE,DECAYED
50812.0,STARLINK-3338,PAYLOAD,2023-05-27 22:02:43,15.08846874,0.0001133,53.218,43.6907,107.0459,253.0657,1.0342e-05,-1.23e-06,0.0,0 STARLINK-3338,1 50812U 22001K   23147.91855607 -.00000123  00000-0  10342-4 0  9990,2 50812  53.2180  43.6907 0001133 107.0459 253.0657 15.08846874 77047,6917.859,95.437,540.508,538.941,0.0
50812.0,STARLINK-3338,PAYLOAD,2023-05-27 23:38:06,15.08848535,0.0001132,53.2182,43.3929,98.0016,262.1105,2.6708e-05,1.37e-06,0.0,0 STARLINK-3338,1 50812U 22001K   23147.98479453  .00000137  00000-0  26708-4 0  9995,2 50812  53.2182  43.3929 0001132  98.0016 262.1105 15.08848535 77053,6917.854,95.437,540.502,538.936,0.0
50812.0,STARLINK-3338,PAYLOAD,2023-05-28 21:53:30,15.08843954,0.0001149,53.218,39.2307,89.3259,270.7865,9.7964e-05,1.272e-05,0.0,0 STARLINK-3338,1 50812U 22001K   23148.91215497  .00001272  00000-0  97964-4 0  9998,2 50812  53.2180  39.2307 0001149  89.3259 270.7865 15.08843954 77198,6917.868,95.437,540.528,538.938,0.0
50812.0,STARLINK-3338,PAYLOAD,2023-05-29 02:39:39,15.08847889,0.0001151,53.2179,38.3386,88.3282,271.7842,0.00012599,1.718e-05,0.0,0 STARLINK-3338,1 50812U 22001K   23149.11087116  .00001718  00000-0  12599-3 0  9991,2 50812  53.2179  38.3386 0001151  88.3282 271.7842 15.08847889 78470,6917.856,95.437,540.518,538.925,0.0
50812.0,STARLINK-3338,PAYLOAD,2023-05-29 20:08:55,15.08833326,0.0001706,53.2177,35.0668,119.2575,240.8587,-5.0145e-05,-1.086e-05,0.0,0 STARLINK-3338,1 50812U 22001K   23149.83952633 -.00001086  00000-0 -50145-4 0  9995,2 50812  53.2177  35.0668 0001706 119.2575 240.8587 15.08833326 77338,6917.901,95.438,540.946,538.586,0.0
50812.0,STARLINK-3338,PAYLOAD,2023-05-29 23:19:41,15.08834848,0.0001143,53.2177,34.4738,95.0607,265.0515,-3.4452e-05,-8.36e-06,0.0,0 STARLINK-3338,1 50812U 22001K   23149.97200638 -.00000836  00000-0 -34452-4 0  9996,2 50812  53.2177  34.4738 0001143  95.0607 265.0515 15.08834848 78602,6917.896,95.438,540.552,538.97,0.0
50812.0,STARLINK-3338,PAYLOAD,2023-05-30 21:35:05,15.08838922,0.000126,53.218,30.3113,101.3805,258.7329,6.8539e-06,-1.79e-06,0.0,0 STARLINK-3338,1 50812U 22001K   23150.89936517 -.00000179  00000-0  68539-5 0  9994,2 50812  53.2180  30.3113 0001260 101.3805 258.7329 15.08838922 77494,6917.884,95.438,540.62,538.877,0.0
50812.0,STARLINK-3338,PAYLOAD,2023-05-31 02:21:14,15.08844238,0.0001186,53.2173,29.4179,97.6807,262.432,5.154e-05,5.33e-06,0.0,0 STARLINK-3338,1 50812U 22001K   23151.09808072  .00000533  00000-0  51540-4 0  9997,2 50812  53.2173  29.4179 0001186  97.6807 262.4320 15.08844238 78775,6917.867,95.437,540.553,538.912,0.0
50812.0,STARLINK-3338,PAYLOAD,2023-05-31 21:25:52,15.08836177,0.0001144,53.2167,25.8491,98.3453,261.7669,8.9608e-05,1.138e-05,0.0,0 STARLINK-3338,1 50812U 22001K   23151.89296796  .00001138  00000-0  89608-4 0  9997,2 50812  53.2167  25.8491 0001144  98.3453 261.7669 15.08836177 77640,6917.892,95.438,540.548,538.966,0.0
50812.0,STARLINK-3338,PAYLOAD,2023-06-01 00:36:38,15.08840674,0.0001119,53.2165,25.254,95.8961,264.2158,0.00012504,1.703e-05,0.0,0 STARLINK-3338,1 50812U 22001K   23152.02544454  .00001703  00000-0  12504-3 0  9998,2 50812  53.2165  25.2540 0001119  95.8961 264.2158 15.08840674 78914,6917.878,95.438,540.517,538.969,0.0
50812.0,STARLINK-3338,PAYLOAD,2023-06-01 21:16:39,15.08845484,0.0001156,53.2171,21.3883,92.8021,267.3103,7.5167e-05,9.09e-06,0.0,0 STARLINK-3338,1 50812U 22001K   23152.88656393  .00000909  00000-0  75167-4 0  9990,2 50812  53.2171  21.3883 0001156  92.8021 267.3103 15.08845484 77796,6917.864,95.437,540.528,538.929,0.0
50812.0,STARLINK-3338,PAYLOAD,2023-06-01 22:52:02,15.08847598,0.0001152,53.2171,21.091,94.3119,265.8004,9.307e-05,1.194e-05,0.0,0 STARLINK-3338,1 50812U 22001K   23152.95280180  .00001194  00000-0  93070-4 0  9995,2 50812  53.2171  21.0910 0001152  94.3119 265.8004 15.08847598 77808,6917.857,95.437,540.519,538.925,0.0
50812.0,STARLINK-3338,PAYLOAD,2023-06-02 14:45:54,15.08837765,0.00012,53.2162,18.1218,76.9206,283.192,7.2149e-05,8.61e-06,0.0,0 STARLINK-3338,1 50812U 22001K   23153.61520942  .00000861  00000-0  72149-4 0  9996,2 50812  53.2162  18.1218 0001200  76.9206 283.1920 15.08837765 79158,6917.887,95.438,540.582,538.922,0.0
50812.0,STARLINK-3338,PAYLOAD,2023-06-02 21:07:26,15.08839717,0.0001099,53.2169,16.9293,97.3717,262.74,4.7455e-06,-2.12e-06,0.0,0 STARLINK-3338,1 50812U 22001K   23153.88017010 -.00000212  00000-0  47455-5 0  9996,2 50812  53.2169  16.9293 0001099  97.3717 262.7400 15.08839717 77944,6917.881,95.438,540.507,538.986,0.0
50812.0,STARLINK-3338,PAYLOAD,2023-06-03 14:36:40,15.08842274,0.0001088,53.217,13.6579,94.6396,265.472,3.2985e-05,2.37e-06,0.0,0 STARLINK-3338,1 50812U 22001K   23154.60880766  .00000237  00000-0  32985-4 0  9990,2 50812  53.2170  13.6579 0001088  94.6396 265.4720 15.08842274 78058,6917.873,95.437,540.491,538.986,0.0
50812.0,STARLINK-3338,PAYLOAD,2023-06-03 20:58:13,15.0884458,0.0001089,53.2169,12.4687,92.2719,267.8398,5.048e-05,5.16e-06,0.0,0 STARLINK-3338,1 50812U 22001K   23154.87376532  .00000516  00000-0  50480-4 0  9990,2 50812  53.2169  12.4687 0001089  92.2719 267.8398 15.08844580 78090,6917.866,95.437,540.485,538.978,0.0
50812.0,STARLINK-3338,PAYLOAD,2023-06-04 14:27:28,15.08836292,0.00011,53.217,9.1972,94.438,265.6738,5.3629e-05,5.66e-06,0.0,0 STARLINK-3338,1 50812U 22001K   23155.60241076  .00000566  00000-0  53629-4 0  9999,2 50812  53.2170   9.1972 0001100  94.4380 265.6738 15.08836292 78202,6917.892,95.438,540.518,538.996,0.0
50812.0,STARLINK-3338,PAYLOAD,2023-06-04 19:13:37,15.08836564,0.0001106,53.217,8.305,94.9393,265.1726,4.9753e-05,5.04e-06,0.0,0 STARLINK-3338,1 50812U 22001K   23155.80113099  .00000504  00000-0  49753-4 0  9999,2 50812  53.2170   8.3050 0001106  94.9393 265.1726 15.08836564 79480,6917.891,95.438,540.521,538.991,0.0
50812.0,STARLINK-3338,PAYLOAD,2023-06-04 20:49:00,15.08838906,0.00011,53.2173,8.0076,88.2109,271.901,6.7462e-05,7.86e-06,0.0,0 STARLINK-3338,1 50812U 22001K   23155.86736937  .00000786  00000-0  67462-4 0  9996,2 50812  53.2173   8.0076 0001100  88.2109 271.9010 15.08838906 78249,6917.884,95.438,540.51,538.988,0.0
50812.0,STARLINK-3338,PAYLOAD,2023-06-05 14:18:15,15.08841364,0.0001075,53.2174,4.737,83.5505,276.5609,2.7021e-05,1.42e-06,0.0,0 STARLINK-3338,1 50812U 22001K   23156.59600996  .00000142  00000-0  27021-4 0  9995,2 50812  53.2174   4.7370 0001075  83.5505 276.5609 15.08841364 78358,6917.876,95.437,540.485,538.998,0.0
50812.0,STARLINK-3338,PAYLOAD,2023-06-05 20:39:47,15.08844073,0.0001085,53.2174,3.5475,85.495,274.6166,5.9628e-05,6.61e-06,0.0,0 STARLINK-3338,1 50812U 22001K   23156.86096701  .00000661  00000-0  59628-4 0  9992,2 50812  53.2174   3.5475 0001085  85.4950 274.6166 15.08844073 78398,6917.868,95.437,540.484,538.982,0.0
50812.0,STARLINK-3338,PAYLOAD,2023-06-06 12:33:39,15.08835285,0.0001036,53.2176,0.5759,80.6201,279.4908,5.4993e-05,5.87e-06,0.0,0 STARLINK-3338,1 50812U 22001K   23157.52337295  .00000587  00000-0  54993-4 0  9999,2 50812  53.2176   0.5759 0001036  80.6201 279.4908 15.08835285 78497,6917.895,95.438,540.476,539.043,0.0
50812.0,STARLINK-3338,PAYLOAD,2023-06-06 17:19:48,15.08834798,0.0001024,53.2177,359.6828,83.2456,276.8653,3.7903e-05,3.15e-06,0.0,0 STARLINK-3338,1 50812U 22001K   23157.72209439  .00000315  00000-0  37903-4 0  9990,2 50812  53.2177 359.6828 0001024  83.2456 276.8653 15.08834798 79779,6917.896,95.438,540.47,539.053,0.0
50812.0,STARLINK-3338,PAYLOAD,2023-06-06 18:55:12,15.08835459,0.0001019,53.2177,359.3854,83.2639,276.8469,4.245e-05,3.88e-06,0.0,0 STARLINK-3338,1 50812U 22001K   23157.78833418  .00000388  00000-0  42450-4 0  9999,2 50812  53.2177 359.3854 0001019  83.2639 276.8469 15.08835459 78535,6917.894,95.438,540.464,539.054,0.0
50812.0,STARLINK-3338,PAYLOAD,2023-06-07 12:24:26,15.08835027,0.0001027,53.2182,356.1154,91.006,269.105,2.9484e-06,-2.41e-06,0.0,0 STARLINK-3338,1 50812U 22001K   23158.51697688 -.00000241  00000-0  29484-5 0  9990,2 50812  53.2182 356.1154 0001027  91.0060 269.1050 15.08835027 78647,6917.896,95.438,540.471,539.05,0.0
50812.0,STARLINK-3338,PAYLOAD,2023-06-07 18:45:59,15.08834684,0.000104,53.2182,354.9258,91.7488,268.3623,-3.1601e-06,-3.38e-06,0.0,0 STARLINK-3338,1 50812U 22001K   23158.78193798 -.00000338  00000-0 -31601-5 0  9994,2 50812  53.2182 354.9258 0001040  91.7488 268.3623 15.08834684 79932,6917.897,95.438,540.481,539.042,0.0
50812.0,STARLINK-3338,PAYLOAD,2023-06-07 21:56:45,15.08837973,0.0001048,53.2183,354.3308,90.6503,269.4609,2.3639e-05,8.8e-07,0.0,0 STARLINK-3338,1 50812U 22001K   23158.91441585  .00000088  00000-0  23639-4 0  9990,2 50812  53.2183 354.3308 0001048  90.6503 269.4609 15.08837973 78701,6917.887,95.438,540.477,539.027,0.0
50812.0,STARLINK-3338,PAYLOAD,2023-06-08 12:15:13,15.08837338,0.0001003,53.2177,351.6535,87.2786,272.8321,6.7041e-05,7.79e-06,0.0,0 STARLINK-3338,1 50812U 22001K   23159.51057609  .00000779  00000-0  67041-4 0  9999,2 50812  53.2177 351.6535 0001003  87.2786 272.8321 15.08837338 78795,6917.889,95.438,540.447,539.06,0.0
50812.0,STARLINK-3338,PAYLOAD,2023-06-08 20:12:09,15.08842097,9.7e-05,53.2175,350.1666,88.8365,271.2738,8.7181e-05,1.1e-05,0.0,0 STARLINK-3338,1 50812U 22001K   23159.84177296  .00001100  00000-0  87181-4 0  9996,2 50812  53.2175 350.1666 0000970  88.8365 271.2738 15.08842097 80093,6917.874,95.437,540.41,539.068,0.0
50812.0,STARLINK-3338,PAYLOAD,2023-06-09 05:44:28,15.08833546,0.0001024,53.2173,348.3825,93.7314,266.3796,0.00016342,2.314e-05,0.0,0 STARLINK-3338,1 50812U 22001K   23160.23921750  .00002314  00000-0  16342-3 0  9991,2 50812  53.2173 348.3825 0001024  93.7314 266.3796 15.08833546 80152,6917.9,95.438,540.474,539.057,0.0
